[{"OBJECT_NAME":"SITRO-AIS 8 (ANOKHIN)","OBJECT_ID":"2023-091AD","EPOCH":"2026-03-09T23:44:40.058592","MEAN_MOTION":15.29359179,"ECCENTRICITY":0.0012509,"INCLINATION":97.5169,"RA_OF_ASC_NODE":133.2823,"ARG_OF_PERICENTER":92.0171,"MEAN_ANOMALY":268.2501,"EPHEMERIS_TYPE":0,"CLASSIFICATION_TYPE":"U","NORAD_CAT_ID":57193,"ELEMENT_SET_NO":999,"REV_AT_EPOCH":14927,"BSTAR":0.00064982524,"MEAN_MOTION_DOT":0.00018494,"MEAN_MOTION_DDOT":0},{"OBJECT_NAME":"STARLINK-35746","OBJECT_ID":"2025-268AB","EPOCH":"2026-03-09T04:06:48.489120","MEAN_MOTION":15.27577048,"ECCENTRICITY":0.00015387,"INCLINATION":43.0025,"RA_OF_ASC_NODE":349.7148,"ARG_OF_PERICENTER":252.3791,"MEAN_ANOMALY":107.6892,"EPHEMERIS_TYPE":0,"CLASSIFICATION_TYPE":"U","NORAD_CAT_ID":66582,"ELEMENT_SET_NO":999,"REV_AT_EPOCH":1788,"BSTAR":0.0010504088,"MEAN_MOTION_DOT":0.00028753,"MEAN_MOTION_DDOT":0}]
